IRIDIUM 26              
1 24903U 97043A   25033.45129821  .00001134  00000+0  37664-3 0  9993
2 24903  86.4015 167.1757 0002068  99.8511 260.2920 14.36951931437396
IRIDIUM 22              
1 24907U 97043E   25033.41012087  .00001009  00000+0  34212-3 0  9995
2 24907  86.4017 170.6107 0002054  92.9512 267.1920 14.35786342437432
DUMMY MASS 1            
1 24925U 97048A   25033.48355499  .00001113  00000+0  12200-3 0  9993
2 24925  86.3365 197.5469 0004377 261.8938  98.1790 14.86770332485118
DUMMY MASS 2            
1 24926U 97048B   25033.49062874  .00001101  00000+0  12130-3 0  9996
2 24926  86.3364 199.1252 0005196 278.9519  81.1117 14.86523918484895
IRIDIUM 29              
1 24944U 97051A   25033.54909863  .00001103  00000+0  37141-3 0  9995
2 24944  86.3976 200.3034 0001983  85.2217 274.9206 14.36255737433948
IRIDIUM 33              
1 24946U 97051C   25033.52521081  .00000765  00000+0  26307-3 0  9992
2 24946  86.3893 199.5638 0008861 145.8603 214.3165 14.34747593433431
IRIDIUM 28              
1 24948U 97051E   25033.54009290  .00000986  00000+0  32493-3 0  9997
2 24948  86.3987 197.9015 0002179 102.7487 257.3954 14.37193259434505
